{
  "norad_id": 64612,
  "name": "STARLINK-34521",
  "history": [
    {
      "epoch": "2026-03-28T16:18:43.201152Z",
      "apogee_km": 475.8918535732937,
      "perigee_km": 474.52228129485775,
      "latitude_deg": 2.4227142534508164e-07,
      "longitude_deg": 176.16044949124085,
      "height_km": 475.7359800012133,
      "semi_major_axis_km": 6853.344067434075,
      "eccentricity": 9.992e-05,
      "inclination_deg": 53.1574,
      "raan_deg": 246.9371,
      "arg_perigee_deg": 57.348,
      "mean_anomaly_deg": 302.7617,
      "mean_motion_rev_day": 15.3020268
    },
    {
      "epoch": "2026-03-29T03:17:05.701056Z",
      "apogee_km": 475.9994833060937,
      "perigee_km": 474.35057643170694,
      "latitude_deg": -1.5305340879318066e-05,
      "longitude_deg": 8.991146577851268,
      "height_km": 475.9586925981458,
      "semi_major_axis_km": 6853.3120298689,
      "eccentricity": 0.0001203,
      "inclination_deg": 53.1578,
      "raan_deg": 244.8122,
      "arg_perigee_deg": 82.0315,
      "mean_anomaly_deg": 278.0822,
      "mean_motion_rev_day": 15.3021341
    },
    {
      "epoch": "2026-03-30T02:47:53.494368Z",
      "apogee_km": 475.5841670855789,
      "perigee_km": 474.79192271038846,
      "latitude_deg": 1.7697939412368062e-05,
      "longitude_deg": 10.7779770133978,
      "height_km": 476.3159041986677,
      "semi_major_axis_km": 6853.325044897983,
      "eccentricity": 5.78e-05,
      "inclination_deg": 53.157,
      "raan_deg": 240.2638,
      "arg_perigee_deg": 125.3278,
      "mean_anomaly_deg": 234.7777,
      "mean_motion_rev_day": 15.30209051
    },
    {
      "epoch": "2026-03-30T02:47:53.495232Z",
      "apogee_km": 475.5843041520802,
      "perigee_km": 474.79178564388803,
      "latitude_deg": 1.6190793662620866e-05,
      "longitude_deg": 10.777972280531346,
      "height_km": 476.3159834565471,
      "semi_major_axis_km": 6853.325044897983,
      "eccentricity": 5.782e-05,
      "inclination_deg": 53.157,
      "raan_deg": 240.2638,
      "arg_perigee_deg": 125.3278,
      "mean_anomaly_deg": 234.7777,
      "mean_motion_rev_day": 15.30209051
    },
    {
      "epoch": "2026-03-30T13:46:16.409856Z",
      "apogee_km": 476.41173660737695,
      "perigee_km": 474.0160792639981,
      "latitude_deg": -3.194812564635813e-05,
      "longitude_deg": -156.39468706597359,
      "height_km": 474.97553739711026,
      "semi_major_axis_km": 6853.350907935687,
      "eccentricity": 0.00017478,
      "inclination_deg": 53.156,
      "raan_deg": 238.1373,
      "arg_perigee_deg": 18.3389,
      "mean_anomaly_deg": 341.7674,
      "mean_motion_rev_day": 15.30200389
    },
    {
      "epoch": "2026-03-30T16:54:22.380480Z",
      "apogee_km": 475.7712212926599,
      "perigee_km": 474.6246583572265,
      "latitude_deg": 6.80863161628056e-05,
      "longitude_deg": 155.84486048496169,
      "height_km": 476.0462781193165,
      "semi_major_axis_km": 6853.334939824943,
      "eccentricity": 8.365e-05,
      "inclination_deg": 53.1564,
      "raan_deg": 237.5304,
      "arg_perigee_deg": 85.0036,
      "mean_anomaly_deg": 275.1061,
      "mean_motion_rev_day": 15.30205737
    },
    {
      "epoch": "2026-03-31T16:25:10.458912Z",
      "apogee_km": 475.98348616225485,
      "perigee_km": 474.5415309056598,
      "latitude_deg": 2.075507145807892e-05,
      "longitude_deg": 157.62524053809238,
      "height_km": 475.75825855102516,
      "semi_major_axis_km": 6853.3995085339575,
      "eccentricity": 0.0001052,
      "inclination_deg": 53.1546,
      "raan_deg": 232.9768,
      "arg_perigee_deg": 304.115,
      "mean_anomaly_deg": 55.9751,
      "mean_motion_rev_day": 15.30184112
    },
    {
      "epoch": "2026-04-01T15:55:58.318752Z",
      "apogee_km": 475.45488779174684,
      "perigee_km": 474.9998243985019,
      "latitude_deg": 1.2593816408743162e-06,
      "longitude_deg": 159.40765458417155,
      "height_km": 475.8991616363522,
      "semi_major_axis_km": 6853.364356095124,
      "eccentricity": 3.32e-05,
      "inclination_deg": 53.1562,
      "raan_deg": 228.4243,
      "arg_perigee_deg": 359.0536,
      "mean_anomaly_deg": 1.0464,
      "mean_motion_rev_day": 15.30195885
    },
    {
      "epoch": "2026-04-02T15:26:45.998016Z",
      "apogee_km": 476.17570763525055,
      "perigee_km": 474.21428401804496,
      "latitude_deg": -5.1974055601273274e-05,
      "longitude_deg": 161.19489755263206,
      "height_km": 476.0908163543329,
      "semi_major_axis_km": 6853.3319958266475,
      "eccentricity": 0.0001431,
      "inclination_deg": 53.1556,
      "raan_deg": 223.8759,
      "arg_perigee_deg": 89.9083,
      "mean_anomaly_deg": 270.2081,
      "mean_motion_rev_day": 15.30206723
    }
  ]
}